[{"OBJECT_NAME":"NUSTAR","OBJECT_ID":"2012-031A","EPOCH":"2026-03-10T00:00:02.999808","MEAN_MOTION":15.07728841,"ECCENTRICITY":0.00071224,"INCLINATION":6.0266,"RA_OF_ASC_NODE":57.5732,"ARG_OF_PERICENTER":70.6924,"MEAN_ANOMALY":331.0724,"EPHEMERIS_TYPE":0,"CLASSIFICATION_TYPE":"U","NORAD_CAT_ID":38358,"ELEMENT_SET_NO":999,"REV_AT_EPOCH":130,"BSTAR":0.0011080621,"MEAN_MOTION_DOT":0.00018332,"MEAN_MOTION_DDOT":0},{"OBJECT_NAME":"STARLINK-5154","OBJECT_ID":"2022-141V","EPOCH":"2026-03-09T23:32:39.379776","MEAN_MOTION":15.08815181,"ECCENTRICITY":0.00012515,"INCLINATION":53.2197,"RA_OF_ASC_NODE":2.6682,"ARG_OF_PERICENTER":98.9186,"MEAN_ANOMALY":261.1948,"EPHEMERIS_TYPE":0,"CLASSIFICATION_TYPE":"U","NORAD_CAT_ID":54176,"ELEMENT_SET_NO":999,"REV_AT_EPOCH":18590,"BSTAR":8.4783e-7,"MEAN_MOTION_DOT":-2.74e-6,"MEAN_MOTION_DDOT":0}]
